{
    "links": {
        "self": "http://www.neowsapp.com/rest/v1/neo/3596844?api_key=iIulBulltgU6a56xZRHN4H3l9WmuAYTsLGpBGhQ2"
    },
    "id": "3596844",
    "neo_reference_id": "3596844",
    "name": "(2012 BH86)",
    "designation": "2012 BH86",
    "nasa_jpl_url": "http://ssd.jpl.nasa.gov/sbdb.cgi?sstr=3596844",
    "absolute_magnitude_h": 24.4,
    "estimated_diameter": {
        "kilometers": {
            "estimated_diameter_min": 0.0350392641,
            "estimated_diameter_max": 0.0783501764
        },
        "meters": {
            "estimated_diameter_min": 35.0392641108,
            "estimated_diameter_max": 78.3501764334
        },
        "miles": {
            "estimated_diameter_min": 0.0217723826,
            "estimated_diameter_max": 0.0486845275
        },
        "feet": {
            "estimated_diameter_min": 114.9582192654,
            "estimated_diameter_max": 257.0543928497
        }
    },
    "is_potentially_hazardous_asteroid": false,
    "close_approach_data": [
        {
            "close_approach_date": "2012-02-25",
            "close_approach_date_full": "2012-Feb-25 08:41",
            "epoch_date_close_approach": 1330159260000,
            "relative_velocity": {
                "kilometers_per_second": "9.2792550081",
                "kilometers_per_hour": "33405.3180292869",
                "miles_per_hour": "20756.7655276978"
            },
            "miss_distance": {
                "astronomical": "0.063613194",
                "lunar": "24.745532466",
                "kilometers": "9516398.32629678",
                "miles": "5913215.720504364"
            },
            "orbiting_body": "Earth"
        },
        {
            "close_approach_date": "2015-02-12",
            "close_approach_date_full": "2015-Feb-12 22:51",
            "epoch_date_close_approach": 1423781460000,
            "relative_velocity": {
                "kilometers_per_second": "13.876037547",
                "kilometers_per_hour": "49953.7351691471",
                "miles_per_hour": "31039.3083888514"
            },
            "miss_distance": {
                "astronomical": "0.092469473",
                "lunar": "35.970624997",
                "kilometers": "13833236.20082251",
                "miles": "8595574.393110238"
            },
            "orbiting_body": "Earth"
        }
    ],
    "orbital_data": {
        "orbit_id": "8",
        "orbit_determination_date": "2017-04-06 08:51:08",
        "first_observation_date": "2012-01-28",
        "last_observation_date": "2012-02-04",
        "data_arc_in_days": 7,
        "observations_used": 29,
        "orbit_uncertainty": "8",
        "minimum_orbit_intersection": ".00309603",
        "jupiter_tisserand_invariant": "4.915",
        "epoch_osculation": "2455956.5",
        "eccentricity": ".388771883838939",
        "semi_major_axis": "1.302516946061305",
        "inclination": "3.559591156034875",
        "ascending_node_longitude": "332.6462833851368",
        "orbital_period": "542.9670813868981",
        "perihelion_distance": ".79613497920891",
        "perihelion_argument": "249.2841269283328",
        "aphelion_distance": "1.808898912913701",
        "perihelion_time": "2456031.929752472551",
        "mean_anomaly": "309.9882924379924",
        "mean_motion": ".6630236202910382",
        "equinox": "J2000",
        "orbit_class": {
            "orbit_class_type": "APO",
            "orbit_class_description": "Near-Earth asteroid orbits which cross the Earth’s orbit similar to that of 1862 Apollo",
            "orbit_class_range": "a (semi-major axis) > 1.0 AU; q (perihelion) < 1.017 AU"
        }
    },
    "is_sentry_object": false
}